[{"OBJECT_NAME":"OBJECT H","OBJECT_ID":"2025-055H","EPOCH":"2026-03-09T23:29:50.051328","MEAN_MOTION":15.30330066,"ECCENTRICITY":0.00075967,"INCLINATION":97.636,"RA_OF_ASC_NODE":211.9572,"ARG_OF_PERICENTER":140.4354,"MEAN_ANOMALY":219.7441,"EPHEMERIS_TYPE":0,"CLASSIFICATION_TYPE":"U","NORAD_CAT_ID":63298,"ELEMENT_SET_NO":999,"REV_AT_EPOCH":5423,"BSTAR":0.0015582864,"MEAN_MOTION_DOT":0.00045901,"MEAN_MOTION_DDOT":0},{"OBJECT_NAME":"STARLINK-36039","OBJECT_ID":"2025-270AA","EPOCH":"2026-03-09T00:49:54.128064","MEAN_MOTION":15.27578172,"ECCENTRICITY":0.00011199,"INCLINATION":43.0016,"RA_OF_ASC_NODE":60.0546,"ARG_OF_PERICENTER":247.1761,"MEAN_ANOMALY":112.8972,"EPHEMERIS_TYPE":0,"CLASSIFICATION_TYPE":"U","NORAD_CAT_ID":66612,"ELEMENT_SET_NO":999,"REV_AT_EPOCH":1760,"BSTAR":0.0013345908,"MEAN_MOTION_DOT":0.00036643,"MEAN_MOTION_DDOT":0}]
